IRIDIUM 33 DEB          
1 38241U 97051ZR  26064.98127887  .00003050  00000+0  69584-3 0  9990
2 38241  86.3233 313.8754 0004759 113.3476 246.8233 14.55528801614116
IRIDIUM 33 DEB          
1 38474U 97051AAB 26054.51272622  .00002644  00000+0  65939-3 0  9992
2 38474  86.3472 338.3518 0024339 199.6569 160.3701 14.51138309663733
IRIDIUM 33 DEB          
1 39777U 97051AAJ 26065.63122153  .00015308  00000+0  31924-2 0  9994
2 39777  85.9606 134.2664 0056592 260.0534  99.4284 14.58840829614075
IRIDIUM 33 DEB          
1 39778U 97051AAK 26065.56050942  .00005823  00000+0  13447-2 0  9994
2 39778  86.3828   6.8144 0009819  95.9059 264.3268 14.55080125619118
IRIDIUM 33 DEB          
1 40996U 97051ABJ 26060.72058470  .00046825  00000+0  33888-2 0  9993
2 40996  86.3492 324.3002 0011110 100.8093 289.4030 15.03751251636721
IRIDIUM 33 DEB          
1 40998U 97051ABL 26065.14241149  .00002345  00000+0  66052-3 0  9992
2 40998  86.3859  18.0087 0008117 144.7587 271.8155 14.45445631 78863
IRIDIUM 33 DEB          
1 46965U 97051ABX 26064.63141240  .00004076  00000+0  82387-3 0  9998
2 46965  86.3330 303.9282 0020944  47.4459 342.3534 14.61027741634789
IRIDIUM 33 DEB          
1 46971U 97051ACD 26046.17100049  .00032805  00000+0  24317-2 0  9995
2 46971  86.3384 302.6959 0018324 121.5358  29.3036 15.02823090651968
IRIDIUM 33 DEB          
1 46972U 97051ACE 26044.68140226  .00002565  00000+0  64340-3 0  9992
2 46972  86.3900  12.2992 0007091 258.5659 223.6549 14.51029384624851
IRIDIUM 33 DEB          
1 46974U 97051ACG 26050.81448888  .00008465  00000+0  22535-2 0  9995
2 46974  86.2960  75.0684 0088187 318.5740  40.8797 14.46114347585067
